STARLINK-30070
1 56707U 23067V   26061.16668981  .00450211  00000+0  15850-1 0  9995
2 56707  43.0038 313.6068 0001861 279.1004 265.7308 15.26618115  5812
STARLINK-30256
1 57522U 23115B   26061.16668981  .00082403  00000+0  30652-2 0  9997
2 57522  43.0003  44.3287 0001276 289.4121 219.8708 15.26548624  5816
STARLINK-30427
1 57865U 23144B   26061.16668981  .00137094  00000+0  50500-2 0  9990
2 57865  43.0008 327.5729 0002102 276.8692 246.8124 15.26583506  5821
STARLINK-30439
1 57867U 23144D   26061.16668981  .00118208  00000+0  43627-2 0  9990
2 57867  43.0009 327.6279 0001484 274.0732 228.3627 15.26615214  5827
STARLINK-30578
1 58093U 23160U   26061.16668981  .00413595  00000+0  14641-1 0  9990
2 58093  43.0009 120.2170 0001292 234.7929 242.3811 15.26602798  5716
STARLINK-30819
1 58179U 23167E   26061.16668981  .00980456  00000+0  33865-1 0  9996
2 58179  43.0004 185.8986 0002642 250.8334 136.2555 15.26553044  5824
STARLINK-30830
1 58194U 23167V   26061.16668981  .00094131  00000+0  34924-2 0  9997
2 58194  43.0001 185.4505 0001156 260.7398 304.9908 15.26568557  5821
STARLINK-30908
1 58424U 23180Y   26061.16668981  .00076908  00000+0  28569-2 0  9998
2 58424  43.0004  94.7481 0001207 267.9853 235.7219 15.26625327  5776
STARLINK-31004
1 58528U 23191W   26061.16668981  .00106857  00000+0  39513-2 0  9993
2 58528  43.0004 145.7074 0001235 249.8557  92.1668 15.26611044  5715
STARLINK-31164
1 58733U 24005F   26061.16668981  .00060297  00000+0  22471-2 0  9998
2 58733  42.9991 261.8129 0001671 279.4525 239.9778 15.26623395  5721
